SITRO-AIS 8 (ANOKHIN)   
1 57193U 23091AD  26198.57911997  .00007057  00000+0  22439-3 0  9995
2 57193  97.5036 264.4944 0009240 359.2884   0.8343 15.32894834169106
SITRO-AIS 7 (FARTUSHNIY)
1 57194U 23091AE  26198.61073627  .00004725  00000+0  18565-3 0  9994
2 57194  97.5045 261.5749 0010881   9.4311 350.7129 15.26135701168911
AVION KALUGA 650        
1 57195U 23091AF  26198.63189941  .00002709  00000+0  12654-3 0  9997
2 57195  97.5070 258.0882 0010191  14.2225 345.9295 15.20646011168657
HORS 2                  
1 57196U 23091AG  26198.59622373  .00007010  00000+0  22514-3 0  9990
2 57196  97.5069 266.0536 0006580 345.9829  14.1229 15.32596931169181
A-SEANSAT-PG1           
1 57197U 23091AH  26198.60055953  .00009868  00000+0  26667-3 0  9993
2 57197  97.5062 268.8507 0005429 339.3562  20.7462 15.37933426169388
SITRO-AIS 10 (BURDAEV)  
1 57199U 23091AK  26198.60971914  .00010824  00000+0  27617-3 0  9999
2 57199  97.5062 269.9014 0004671 330.5681  29.5301 15.39682370169445
SITRO-AIS 9 (SHCHUKIN)  
1 57201U 23091AM  26198.58105059  .00010074  00000+0  26157-3 0  9994
2 57201  97.5060 269.5775 0004939 331.2636  28.8337 15.39165449169424
UTMN 2 (RS27S)          
1 57203U 23091AP  26198.62048499  .00006430  00000+0  20584-3 0  9994
2 57203  97.5069 266.2761 0006504 340.7545  19.3451 15.32735350169203
SITRO-AIS 12 (SMIRENNIY)
1 57204U 23091AQ  26198.63087801  .00010072  00000+0  25901-3 0  9991
2 57204  97.5074 270.1150 0004500 323.0322  37.0612 15.39461763169451
SITRO-AIS 11 (SHEFFER)  
1 57208U 23091AU  26198.63569477  .00010730  00000+0  27179-3 0  9999
2 57208  97.5072 270.3861 0004437 322.3372  37.7562 15.39907652169475
H2SAT (HEINRICH HERTZ)  
1 57213U 23093A   26198.41057825 -.00000008  00000+0  00000+0 0  9990
2 57213   0.0264 100.9600 0000091 319.8743  22.8857  1.00271511 11218
KUZGTU 1 (RS47S)        
1 57217U 23091AV  26198.63795703  .00005968  00000+0  20476-3 0  9992
2 57217  97.5044 263.4396 0009831 357.3450   2.7737 15.30501431169032
QIANKUN-1               
1 57422U 23103B   26197.61257860  .00006165  16552-5  75371-5 0  9999
2 57422  96.1400 240.3808 0035589 130.8922 229.5456 16.07858994172024
FENGYUN 3F              
1 57490U 23111A   26198.62656532  .00000003  00000+0  21662-4 0  9997
2 57490  98.6824 268.0661 0001226  75.7614 284.3699 14.19943661153187
HJ-2F                   
1 57519U 23116A   26198.61606925  .00003722  00000+0  16258-3 0  9999
2 57519  97.3849 203.3139 0006442 302.1251  57.9360 15.22713367163388
XRISM                   
1 57800U 23137A   26198.34787660  .00002282  00000+0  12173-3 0  9993
2 57800  31.0010 164.1948 0007861 267.6275  92.3463 15.12678735157439
METEOR-M2 4             
1 59051U 24039A   26198.64149472 -.00000012  00000+0  14058-4 0  9996
2 59051  98.7027 157.5596 0008258  82.7369 277.4747 14.22432280123597
GRBBETA                 
1 60237U 24128C   26198.15030373  .00001679  00000+0  12511-3 0  9998
2 60237  61.9898 111.1258 0036777 141.0827 219.2924 15.06815785110785
TRANSPORTER-11 OBJECT A 
1 60468U 24149A   26198.11131629  .00004496  00000+0  14192-3 0  9996
2 60468  97.3725 277.9559 0004945 111.8968 248.2801 15.33357294106643
WARATAH SEED-1          
1 60469U 24149B   26198.46301650  .00007127  00000+0  20140-3 0  9992
2 60469  97.3681 279.0799 0003264 116.5664 243.5915 15.36652709106761
PHISAT 2                
1 60470U 24149C   26198.49937393  .00005047  00000+0  16874-3 0  9994
2 60470  97.3749 277.5533 0003273 120.6708 239.4857 15.31448510106635
LEMUR-2-TOMATOKECHUP    
1 60471U 24149D   26197.48204929  .00005784  00000+0  16419-3 0  9998
2 60471  97.3796 279.6140 0003348 120.3105 239.8471 15.36597838106668
CONNECTA IOT-1          
1 60472U 24149E   26198.17449651  .00002090  00000+0  89878-4 0  9996
2 60472  97.3749 273.9619 0002949 138.1796 221.9667 15.23750716106362
LOPEN                   
1 60473U 24149F   26198.47245339  .00008438  00000+0  21010-3 0  9992
2 60473  97.3772 282.0938 0002928 130.0839 230.0664 15.40504380106923
ROCK                    
1 60474U 24149G   26197.74468250  .00009117  00000+0  22698-3 0  9999
2 60474  97.3770 281.3732 0003212 129.2822 230.8709 15.40480155106814
CONNECTA IOT-3          
1 60475U 24149H   26198.45829837  .00002122  00000+0  91149-4 0  9998
2 60475  97.3723 273.9847 0004118 137.7899 222.3656 15.23765548106417
QUBE                    
1 60476U 24149J   26198.49208027  .00013846  00000+0  26134-3 0  9991
2 60476  97.3771 285.5398 0003357 125.1746 234.9820 15.48572741107159
WREN-1                  
1 60478U 24149L   26197.78790738  .00012710  00000+0  29337-3 0  9996
2 60478  97.3763 282.2343 0005434 146.0317 214.1279 15.42666517106886
TOMORROW-S1             
1 60479U 24149M   26197.77215850  .00004161  00000+0  13256-3 0  9997
2 60479  97.3744 278.1578 0004136 127.5691 232.5928 15.33106176106624
